{"type": "FeatureCollection", "features": [ {"type": "Feature", "properties": {"norad_id": 41469, "name": "IRNSS-1G", "group": "gnss", "lat": 3.3975677935773856, "lon": 146.93852139756314, "alt_km": 35782.24879310749, "timestamp": "2025-12-23T18:59:32.213993+00:00", "meta": {"OBJECT_NAME": "IRNSS-1G", "OBJECT_ID": "2016-027A", "EPOCH": "2025-12-22T18:54:58.881600", "MEAN_MOTION": 1.00275148, "ECCENTRICITY": 0.0002638, "INCLINATION": 4.7591, "RA_OF_ASC_NODE": 101.84, "ARG_OF_PERICENTER": 328.4148, "MEAN_ANOMALY": 74.6155, "EPHEMERIS_TYPE": 0, "CLASSIFICATION_TYPE": "U", "NORAD_CAT_ID": 41469, "ELEMENT_SET_NO": 999, "REV_AT_EPOCH": 3541, "BSTAR": 0, "MEAN_MOTION_DOT": -3.15e-06, "MEAN_MOTION_DDOT": 0}, "tle": {"line1": "1 41469U 16027A   25356.78818150 -.00000315  00000+0  00000+0 0  9997", "line2": "2 41469   4.7591 101.8400 0002638 328.4148  74.6155  1.00275148 35414"}}, "geometry": {"type": "Point", "coordinates": [146.93852139756314, 3.3975677935773856]}}, {"type": "Feature", "properties": {"norad_id": 41549, "name": "GSAT0211 (GALILEO 14)", "group": "gnss", "lat": -42.435765531786274, "lon": 86.09542398179607, "alt_km": 23236.83173770421, "timestamp": "2025-12-23T18:59:32.214006+00:00", "meta": {"OBJECT_NAME": "GSAT0211 (GALILEO 14)", "OBJECT_ID": "2016-030A", "EPOCH": "2025-12-22T05:38:05.943264", "MEAN_MOTION": 1.70473275, "ECCENTRICITY": 0.00040882, "INCLINATION": 55.1491, "RA_OF_ASC_NODE": 226.562, "ARG_OF_PERICENTER": 17.521, "MEAN_ANOMALY": 342.5988, "EPHEMERIS_TYPE": 0, "CLASSIFICATION_TYPE": "U", "NORAD_CAT_ID": 41549, "ELEMENT_SET_NO": 999, "REV_AT_EPOCH": 5965, "BSTAR": 0, "MEAN_MOTION_DOT": 7.3e-07, "MEAN_MOTION_DDOT": 0}, "tle": {"line1": "1 41549U 16030A   25356.23479101  .00000073  00000+0  00000+0 0  9999", "line2": "2 41549  55.1491 226.5620 0004088  17.5210 342.5988  1.70473275 59659"}}, "geometry": {"type": "Point", "coordinates": [86.09542398179607, -42.435765531786274]}}, {"type": "Feature", "properties": {"norad_id": 41550, "name": "GSAT0210 (GALILEO 13)", "group": "gnss", "lat": 53.18515350020517, "lon": -64.9243003022202, "alt_km": 23216.890724837318, "timestamp": "2025-12-23T18:59:32.214018+00:00", "meta": {"OBJECT_NAME": "GSAT0210 (GALILEO 13)", "OBJECT_ID": "2016-030B", "EPOCH": "2025-12-21T21:44:04.443936", "MEAN_MOTION": 1.70473441, "ECCENTRICITY": 5.71e-05, "INCLINATION": 55.1488, "RA_OF_ASC_NODE": 226.5692, "ARG_OF_PERICENTER": 197.0028, "MEAN_ANOMALY": 163.1021, "EPHEMERIS_TYPE": 0, "CLASSIFICATION_TYPE": "U", "NORAD_CAT_ID": 41550, "ELEMENT_SET_NO": 999, "REV_AT_EPOCH": 5964, "BSTAR": 0, "MEAN_MOTION_DOT": 7.3e-07, "MEAN_MOTION_DDOT": 0}, "tle": {"line1": "1 41550U 16030B   25355.90560699  .00000073  00000+0  00000+0 0  9997", "line2": "2 41550  55.1488 226.5692 0000571 197.0028 163.1021  1.70473441 59649"}}, "geometry": {"type": "Point", "coordinates": [-64.9243003022202, 53.18515350020517]}}, {"type": "Feature", "properties": {"norad_id": 41586, "name": "BEIDOU-2 G7 (C03)", "group": "gnss", "lat": 1.5642019094685917, "lon": 127.93164451885912, "alt_km": 35775.47813566, "timestamp": "2025-12-23T18:59:32.214028+00:00", "meta": {"OBJECT_NAME": "BEIDOU-2 G7 (C03)", "OBJECT_ID": "2016-037A", "EPOCH": "2025-12-23T13:08:38.014080", "MEAN_MOTION": 1.00269426, "ECCENTRICITY": 0.000514, "INCLINATION": 1.7815, "RA_OF_ASC_NODE": 67.9389, "ARG_OF_PERICENTER": 0.465, "MEAN_ANOMALY": 331.5304, "EPHEMERIS_TYPE": 0, "CLASSIFICATION_TYPE": "U", "NORAD_CAT_ID": 41586, "ELEMENT_SET_NO": 999, "REV_AT_EPOCH": 512, "BSTAR": 0, "MEAN_MOTION_DOT": -3.33e-06, "MEAN_MOTION_DDOT": 0}, "tle": {"line1": "1 41586U 16037A   25357.54766220 -.00000333  00000+0  00000+0 0  9993", "line2": "2 41586   1.7815  67.9389 0005140   0.4650 331.5304  1.00269426  5122"}}, "geometry": {"type": "Point", "coordinates": [127.93164451885912, 1.5642019094685917]}}, {"type": "Feature", "properties": {"norad_id": 41589, "name": "EUTELSAT 117 WEST B (WAAS/PRN 131)", "group": "gnss", "lat": 0.00872471108656586, "lon": -99.55965891509257, "alt_km": 35786.08687148274, "timestamp": "2025-12-23T18:59:32.214039+00:00", "meta": {"OBJECT_NAME": "EUTELSAT 117 WEST B (WAAS/PRN 131)", "OBJECT_ID": "2016-038B", "EPOCH": "2025-12-23T06:49:57.184896", "MEAN_MOTION": 1.00269393, "ECCENTRICITY": 2.146e-05, "INCLINATION": 0.0095, "RA_OF_ASC_NODE": 152.625, "ARG_OF_PERICENTER": 152.4862, "MEAN_ANOMALY": 132.4463, "EPHEMERIS_TYPE": 0, "CLASSIFICATION_TYPE": "U", "NORAD_CAT_ID": 41589, "ELEMENT_SET_NO": 999, "REV_AT_EPOCH": 3489, "BSTAR": 0, "MEAN_MOTION_DOT": 1e-07, "MEAN_MOTION_DDOT": 0}, "tle": {"line1": "1 41589U 16038B   25357.28468964  .00000010  00000+0  00000+0 0  9993", "line2": "2 41589   0.0095 152.6250 0000214 152.4862 132.4463  1.00269393 34899"}}, "geometry": {"type": "Point", "coordinates": [-99.55965891509257, 0.00872471108656586]}}, {"type": "Feature", "properties": {"norad_id": 41859, "name": "GSAT0207 (GALILEO 15)", "group": "gnss", "lat": -55.262316095102555, "lon": 9.91436658753888, "alt_km": 23223.498183047053, "timestamp": "2025-12-23T18:59:32.214049+00:00", "meta": {"OBJECT_NAME": "GSAT0207 (GALILEO 15)", "OBJECT_ID": "2016-069A", "EPOCH": "2025-12-22T04:24:39.710016", "MEAN_MOTION": 1.70474442, "ECCENTRICITY": 0.00024396, "INCLINATION": 55.3874, "RA_OF_ASC_NODE": 105.9888, "ARG_OF_PERICENTER": 317.4324, "MEAN_ANOMALY": 42.5257, "EPHEMERIS_TYPE": 0, "CLASSIFICATION_TYPE": "U", "NORAD_CAT_ID": 41859, "ELEMENT_SET_NO": 999, "REV_AT_EPOCH": 5638, "BSTAR": 0, "MEAN_MOTION_DOT": 6e-08, "MEAN_MOTION_DDOT": 0}, "tle": {"line1": "1 41859U 16069A   25356.18379294  .00000006  00000+0  00000+0 0  9997", "line2": "2 41859  55.3874 105.9888 0002439 317.4324  42.5257  1.70474442 56382"}}, "geometry": {"type": "Point", "coordinates": [9.91436658753888, -55.262316095102555]}}, {"type": "Feature", "properties": {"norad_id": 41860, "name": "GSAT0212 (GALILEO 16)", "group": "gnss", "lat": -2.9586068499096156, "lon": 103.89688291644397, "alt_km": 23217.12721789561, "timestamp": "2025-12-23T18:59:32.214060+00:00", "meta": {"OBJECT_NAME": "GSAT0212 (GALILEO 16)", "OBJECT_ID": "2016-069B", "EPOCH": "2025-12-22T14:58:35.768640", "MEAN_MOTION": 1.70474725, "ECCENTRICITY": 0.00020435, "INCLINATION": 55.3853, "RA_OF_ASC_NODE": 105.972, "ARG_OF_PERICENTER": 18.0995, "MEAN_ANOMALY": 341.8877, "EPHEMERIS_TYPE": 0, "CLASSIFICATION_TYPE": "U", "NORAD_CAT_ID": 41860, "ELEMENT_SET_NO": 999, "REV_AT_EPOCH": 5664, "BSTAR": 0, "MEAN_MOTION_DOT": 8e-08, "MEAN_MOTION_DDOT": 0}, "tle": {"line1": "1 41860U 16069B   25356.62402510  .00000008  00000+0  00000+0 0  9998", "line2": "2 41860  55.3853 105.9720 0002043  18.0995 341.8877  1.70474725 56641"}}, "geometry": {"type": "Point", "coordinates": [103.89688291644397, -2.9586068499096156]}}, {"type": "Feature", "properties": {"norad_id": 41861, "name": "GSAT0213 (GALILEO 17)", "group": "gnss", "lat": 38.528309741152206, "lon": -107.35560593418039, "alt_km": 23224.122079417044, "timestamp": "2025-12-23T18:59:32.214070+00:00", "meta": {"OBJECT_NAME": "GSAT0213 (GALILEO 17)", "OBJECT_ID": "2016-069C", "EPOCH": "2025-12-17T17:05:43.699776", "MEAN_MOTION": 1.70474994, "ECCENTRICITY": 0.000259, "INCLINATION": 55.385, "RA_OF_ASC_NODE": 106.1156, "ARG_OF_PERICENTER": 282.1972, "MEAN_ANOMALY": 77.7328, "EPHEMERIS_TYPE": 0, "CLASSIFICATION_TYPE": "U", "NORAD_CAT_ID": 41861, "ELEMENT_SET_NO": 999, "REV_AT_EPOCH": 5642, "BSTAR": 0, "MEAN_MOTION_DOT": -9e-08, "MEAN_MOTION_DDOT": 0}, "tle": {"line1": "1 41861U 16069C   25351.71231134 -.00000009  00000+0  00000+0 0  9998", "line2": "2 41861  55.3850 106.1156 0002590 282.1972  77.7328  1.70474994 56421"}}, "geometry": {"type": "Point", "coordinates": [-107.35560593418039, 38.528309741152206]}}, {"type": "Feature", "properties": {"norad_id": 41862, "name": "GSAT0214 (GALILEO 18)", "group": "gnss", "lat": 32.85932461419165, "lon": 132.39133567470063, "alt_km": 23219.981485128734, "timestamp": "2025-12-23T18:59:32.214080+00:00", "meta": {"OBJECT_NAME": "GSAT0214 (GALILEO 18)", "OBJECT_ID": "2016-069D", "EPOCH": "2025-12-21T09:04:04.029024", "MEAN_MOTION": 1.70474854, "ECCENTRICITY": 0.00016223, "INCLINATION": 55.385, "RA_OF_ASC_NODE": 106.0069, "ARG_OF_PERICENTER": 287.8422, "MEAN_ANOMALY": 72.112, "EPHEMERIS_TYPE": 0, "CLASSIFICATION_TYPE": "U", "NORAD_CAT_ID": 41862, "ELEMENT_SET_NO": 999, "REV_AT_EPOCH": 5661, "BSTAR": 0, "MEAN_MOTION_DOT": 2e-08, "MEAN_MOTION_DDOT": 0}, "tle": {"line1": "1 41862U 16069D   25355.37782441  .00000002  00000+0  00000+0 0  9999", "line2": "2 41862  55.3850 106.0069 0001622 287.8422  72.1120  1.70474854 56616"}}, "geometry": {"type": "Point", "coordinates": [132.39133567470063, 32.85932461419165]}}, {"type": "Feature", "properties": {"norad_id": 42709, "name": "SES-15 (WAAS/PRN 133)", "group": "gnss", "lat": -0.03794047884299626, "lon": -111.72015242383887, "alt_km": 35787.188327604475, "timestamp": "2025-12-23T18:59:32.214130+00:00", "meta": {"OBJECT_NAME": "SES-15 (WAAS/PRN 133)", "OBJECT_ID": "2017-026A", "EPOCH": "2025-12-22T11:37:11.806752", "MEAN_MOTION": 1.00267282, "ECCENTRICITY": 1.521e-05, "INCLINATION": 0.0196, "RA_OF_ASC_NODE": 338.6163, "ARG_OF_PERICENTER": 354.9736, "MEAN_ANOMALY": 162.8448, "EPHEMERIS_TYPE": 0, "CLASSIFICATION_TYPE": "U", "NORAD_CAT_ID": 42709, "ELEMENT_SET_NO": 999, "REV_AT_EPOCH": 566, "BSTAR": 0, "MEAN_MOTION_DOT": 8.2e-07, "MEAN_MOTION_DDOT": 0}, "tle": {"line1": "1 42709U 17026A   25356.48416443  .00000082  00000+0  00000+0 0  9991", "line2": "2 42709   0.0196 338.6163 0000152 354.9736 162.8448  1.00267282  5663"}}, "geometry": {"type": "Point", "coordinates": [-111.72015242383887, -0.03794047884299626]}}]}